{
    "links": {
        "self": "http://www.neowsapp.com/rest/v1/neo/3372653?api_key=iIulBulltgU6a56xZRHN4H3l9WmuAYTsLGpBGhQ2"
    },
    "id": "3372653",
    "neo_reference_id": "3372653",
    "name": "(2007 FL18)",
    "designation": "2007 FL18",
    "nasa_jpl_url": "http://ssd.jpl.nasa.gov/sbdb.cgi?sstr=3372653",
    "absolute_magnitude_h": 19.7,
    "estimated_diameter": {
        "kilometers": {
            "estimated_diameter_min": 0.3051792326,
            "estimated_diameter_max": 0.6824015094
        },
        "meters": {
            "estimated_diameter_min": 305.1792325939,
            "estimated_diameter_max": 682.4015094011
        },
        "miles": {
            "estimated_diameter_min": 0.1896295249,
            "estimated_diameter_max": 0.4240245083
        },
        "feet": {
            "estimated_diameter_min": 1001.2442334633,
            "estimated_diameter_max": 2238.8501681036
        }
    },
    "is_potentially_hazardous_asteroid": false,
    "close_approach_data": [
        {
            "close_approach_date": "2007-02-13",
            "close_approach_date_full": "2007-Feb-13 00:00",
            "epoch_date_close_approach": 1171324800000,
            "relative_velocity": {
                "kilometers_per_second": "19.9941888865",
                "kilometers_per_hour": "71979.0799912607",
                "miles_per_hour": "44725.0011201253"
            },
            "miss_distance": {
                "astronomical": "0.4690152471",
                "lunar": "182.4469311219",
                "kilometers": "70163681.963683677",
                "miles": "43597690.3204696626"
            },
            "orbiting_body": "Earth"
        }
    ],
    "orbital_data": {
        "orbit_id": "6",
        "orbit_determination_date": "2017-04-06 09:06:38",
        "first_observation_date": "2007-03-21",
        "last_observation_date": "2007-03-25",
        "data_arc_in_days": 4,
        "observations_used": 18,
        "orbit_uncertainty": "9",
        "minimum_orbit_intersection": ".320621",
        "jupiter_tisserand_invariant": "2.631",
        "epoch_osculation": "2454183.5",
        "eccentricity": ".6468507732085528",
        "semi_major_axis": "3.414441081682829",
        "inclination": "26.37023014799906",
        "ascending_node_longitude": "333.2632221288999",
        "orbital_period": "2304.506097238927",
        "perihelion_distance": "1.205807227921244",
        "perihelion_argument": "133.1131925312133",
        "aphelion_distance": "5.623074935444415",
        "perihelion_time": "2454125.671331547875",
        "mean_anomaly": "9.033745090849544",
        "mean_motion": ".1562156856218879",
        "equinox": "J2000",
        "orbit_class": {
            "orbit_class_type": "AMO",
            "orbit_class_description": "Near-Earth asteroid orbits similar to that of 1221 Amor",
            "orbit_class_range": "1.017 AU < q (perihelion) < 1.3 AU"
        }
    },
    "is_sentry_object": false
}